CCSDS_OMM_VERS = 2.0
CREATION_DATE  = 
ORIGINATOR     = 

OBJECT_NAME    = STARLINK-36930
OBJECT_ID      = 2026-040D
CENTER_NAME    = EARTH
REF_FRAME      = TEME
TIME_SYSTEM    = UTC
MEAN_ELEMENT_THEORY = SGP/SGP4

EPOCH          = 2026-03-07T04:00:03.000096
MEAN_MOTION    = 16.09757909
ECCENTRICITY   = .0000856
INCLINATION    = 97.2834
RA_OF_ASC_NODE = 14.0872
ARG_OF_PERICENTER = 105.6386
MEAN_ANOMALY   = 183.5651

EPHEMERIS_TYPE = 0
CLASSIFICATION_TYPE = U
NORAD_CAT_ID   = 68018
ELEMENT_SET_NO = 999
REV_AT_EPOCH   = 201
BSTAR          = -.88177E-3
MEAN_MOTION_DOT = -.804066E-2
MEAN_MOTION_DDOT = .24634E-3

CCSDS_OMM_VERS = 2.0
CREATION_DATE  = 
ORIGINATOR     = 

OBJECT_NAME    = STARLINK-36921
OBJECT_ID      = 2026-040E
CENTER_NAME    = EARTH
REF_FRAME      = TEME
TIME_SYSTEM    = UTC
MEAN_ELEMENT_THEORY = SGP/SGP4

EPOCH          = 2026-03-05T23:56:48.369120
MEAN_MOTION    = 16.11975695
ECCENTRICITY   = .00015715
INCLINATION    = 97.2864
RA_OF_ASC_NODE = 12.7985
ARG_OF_PERICENTER = 117.0515
MEAN_ANOMALY   = 243.0930

EPHEMERIS_TYPE = 0
CLASSIFICATION_TYPE = U
NORAD_CAT_ID   = 68019
ELEMENT_SET_NO = 999
REV_AT_EPOCH   = 74
BSTAR          = .13001081E-4
MEAN_MOTION_DOT = .13027E-3
MEAN_MOTION_DDOT = .2403282E-5

CCSDS_OMM_VERS = 2.0
CREATION_DATE  = 
ORIGINATOR     = 

OBJECT_NAME    = STARLINK-36928
OBJECT_ID      = 2026-040F
CENTER_NAME    = EARTH
REF_FRAME      = TEME
TIME_SYSTEM    = UTC
MEAN_ELEMENT_THEORY = SGP/SGP4

EPOCH          = 2026-03-07T04:00:03.000096
MEAN_MOTION    = 16.10073044
ECCENTRICITY   = .0000942
INCLINATION    = 97.2832
RA_OF_ASC_NODE = 14.0886
ARG_OF_PERICENTER = 93.4218
MEAN_ANOMALY   = 199.6107

EPHEMERIS_TYPE = 0
CLASSIFICATION_TYPE = U
NORAD_CAT_ID   = 68020
ELEMENT_SET_NO = 999
REV_AT_EPOCH   = 201
BSTAR          = -.88074E-3
MEAN_MOTION_DOT = -.819566E-2
MEAN_MOTION_DDOT = .25627E-3

CCSDS_OMM_VERS = 2.0
CREATION_DATE  = 
ORIGINATOR     = 

OBJECT_NAME    = STARLINK-36858
OBJECT_ID      = 2026-040G
CENTER_NAME    = EARTH
REF_FRAME      = TEME
TIME_SYSTEM    = UTC
MEAN_ELEMENT_THEORY = SGP/SGP4

EPOCH          = 2026-03-07T04:00:03.000096
MEAN_MOTION    = 16.10292125
ECCENTRICITY   = .0000953
INCLINATION    = 97.2829
RA_OF_ASC_NODE = 14.0895
ARG_OF_PERICENTER = 105.3197
MEAN_ANOMALY   = 190.3792

EPHEMERIS_TYPE = 0
CLASSIFICATION_TYPE = U
NORAD_CAT_ID   = 68021
ELEMENT_SET_NO = 999
REV_AT_EPOCH   = 201
BSTAR          = -.88627E-3
MEAN_MOTION_DOT = -.836399E-2
MEAN_MOTION_DDOT = .26688E-3

CCSDS_OMM_VERS = 2.0
CREATION_DATE  = 
ORIGINATOR     = 

OBJECT_NAME    = STARLINK-36916
OBJECT_ID      = 2026-040H
CENTER_NAME    = EARTH
REF_FRAME      = TEME
TIME_SYSTEM    = UTC
MEAN_ELEMENT_THEORY = SGP/SGP4

EPOCH          = 2026-03-07T04:00:03.000096
MEAN_MOTION    = 16.10416849
ECCENTRICITY   = .0001021
INCLINATION    = 97.2831
RA_OF_ASC_NODE = 14.0906
ARG_OF_PERICENTER = 106.6160
MEAN_ANOMALY   = 190.5301

EPHEMERIS_TYPE = 0
CLASSIFICATION_TYPE = U
NORAD_CAT_ID   = 68022
ELEMENT_SET_NO = 999
REV_AT_EPOCH   = 201
BSTAR          = -.89514E-3
MEAN_MOTION_DOT = -.851545E-2
MEAN_MOTION_DDOT = .27635E-3

CCSDS_OMM_VERS = 2.0
CREATION_DATE  = 
ORIGINATOR     = 

OBJECT_NAME    = STARLINK-36871
OBJECT_ID      = 2026-040J
CENTER_NAME    = EARTH
REF_FRAME      = TEME
TIME_SYSTEM    = UTC
MEAN_ELEMENT_THEORY = SGP/SGP4

EPOCH          = 2026-03-07T04:00:03.000096
MEAN_MOTION    = 16.10528463
ECCENTRICITY   = .0000919
INCLINATION    = 97.2829
RA_OF_ASC_NODE = 14.0908
ARG_OF_PERICENTER = 103.2269
MEAN_ANOMALY   = 195.2865

EPHEMERIS_TYPE = 0
CLASSIFICATION_TYPE = U
NORAD_CAT_ID   = 68023
ELEMENT_SET_NO = 999
REV_AT_EPOCH   = 201
BSTAR          = -.88602E-3
MEAN_MOTION_DOT = -.849036E-2
MEAN_MOTION_DDOT = .27525E-3

CCSDS_OMM_VERS = 2.0
CREATION_DATE  = 
ORIGINATOR     = 

OBJECT_NAME    = STARLINK-36891
OBJECT_ID      = 2026-040K
CENTER_NAME    = EARTH
REF_FRAME      = TEME
TIME_SYSTEM    = UTC
MEAN_ELEMENT_THEORY = SGP/SGP4

EPOCH          = 2026-03-07T04:00:03.000096
MEAN_MOTION    = 16.10684308
ECCENTRICITY   = .0001059
INCLINATION    = 97.2829
RA_OF_ASC_NODE = 14.0920
ARG_OF_PERICENTER = 108.9688
MEAN_ANOMALY   = 191.2117

EPHEMERIS_TYPE = 0
CLASSIFICATION_TYPE = U
NORAD_CAT_ID   = 68024
ELEMENT_SET_NO = 999
REV_AT_EPOCH   = 201
BSTAR          = -.89028E-3
MEAN_MOTION_DOT = -.861764E-2
MEAN_MOTION_DDOT = .28352E-3

CCSDS_OMM_VERS = 2.0
CREATION_DATE  = 
ORIGINATOR     = 

OBJECT_NAME    = STARLINK-36378
OBJECT_ID      = 2026-040L
CENTER_NAME    = EARTH
REF_FRAME      = TEME
TIME_SYSTEM    = UTC
MEAN_ELEMENT_THEORY = SGP/SGP4

EPOCH          = 2026-03-07T04:00:03.000096
MEAN_MOTION    = 16.10910464
ECCENTRICITY   = .0000938
INCLINATION    = 97.2832
RA_OF_ASC_NODE = 14.0932
ARG_OF_PERICENTER = 100.8884
MEAN_ANOMALY   = 202.2624

EPHEMERIS_TYPE = 0
CLASSIFICATION_TYPE = U
NORAD_CAT_ID   = 68025
ELEMENT_SET_NO = 999
REV_AT_EPOCH   = 196
BSTAR          = -.86182E-3
MEAN_MOTION_DOT = -.846787E-2
MEAN_MOTION_DDOT = .2753E-3

CCSDS_OMM_VERS = 2.0
CREATION_DATE  = 
ORIGINATOR     = 

OBJECT_NAME    = STARLINK-36884
OBJECT_ID      = 2026-040M
CENTER_NAME    = EARTH
REF_FRAME      = TEME
TIME_SYSTEM    = UTC
MEAN_ELEMENT_THEORY = SGP/SGP4

EPOCH          = 2026-03-07T04:00:03.000096
MEAN_MOTION    = 16.10790647
ECCENTRICITY   = .0000939
INCLINATION    = 97.2829
RA_OF_ASC_NODE = 14.0922
ARG_OF_PERICENTER = 103.1520
MEAN_ANOMALY   = 198.5637

EPHEMERIS_TYPE = 0
CLASSIFICATION_TYPE = U
NORAD_CAT_ID   = 68026
ELEMENT_SET_NO = 999
REV_AT_EPOCH   = 201
BSTAR          = -.85834E-3
MEAN_MOTION_DOT = -.836845E-2
MEAN_MOTION_DDOT = .26891E-3

CCSDS_OMM_VERS = 2.0
CREATION_DATE  = 
ORIGINATOR     = 

OBJECT_NAME    = STARLINK-36940
OBJECT_ID      = 2026-040N
CENTER_NAME    = EARTH
REF_FRAME      = TEME
TIME_SYSTEM    = UTC
MEAN_ELEMENT_THEORY = SGP/SGP4

EPOCH          = 2026-03-07T04:00:03.000096
MEAN_MOTION    = 16.12895775
ECCENTRICITY   = .0000755
INCLINATION    = 97.2807
RA_OF_ASC_NODE = 14.1066
ARG_OF_PERICENTER = 92.0061
MEAN_ANOMALY   = 241.6742

EPHEMERIS_TYPE = 0
CLASSIFICATION_TYPE = U
NORAD_CAT_ID   = 68027
ELEMENT_SET_NO = 999
REV_AT_EPOCH   = 211
BSTAR          = -.67593E-3
MEAN_MOTION_DOT = -.758742E-2
MEAN_MOTION_DDOT = .2308E-3

CCSDS_OMM_VERS = 2.0
CREATION_DATE  = 
ORIGINATOR     = 

OBJECT_NAME    = STARLINK-36253
OBJECT_ID      = 2026-040P
CENTER_NAME    = EARTH
REF_FRAME      = TEME
TIME_SYSTEM    = UTC
MEAN_ELEMENT_THEORY = SGP/SGP4

EPOCH          = 2026-03-07T04:00:03.000096
MEAN_MOTION    = 16.04086159
ECCENTRICITY   = .0001403
INCLINATION    = 97.2813
RA_OF_ASC_NODE = 14.0794
ARG_OF_PERICENTER = 115.7809
MEAN_ANOMALY   = 158.0867

EPHEMERIS_TYPE = 0
CLASSIFICATION_TYPE = U
NORAD_CAT_ID   = 68028
ELEMENT_SET_NO = 999
REV_AT_EPOCH   = 211
BSTAR          = -.28992E-2
MEAN_MOTION_DOT = -.184417E-1
MEAN_MOTION_DDOT = .10731E-2

CCSDS_OMM_VERS = 2.0
CREATION_DATE  = 
ORIGINATOR     = 

OBJECT_NAME    = STARLINK-36944
OBJECT_ID      = 2026-040Q
CENTER_NAME    = EARTH
REF_FRAME      = TEME
TIME_SYSTEM    = UTC
MEAN_ELEMENT_THEORY = SGP/SGP4

EPOCH          = 2026-03-07T04:00:03.000096
MEAN_MOTION    = 16.11022208
ECCENTRICITY   = .0000926
INCLINATION    = 97.2824
RA_OF_ASC_NODE = 14.0933
ARG_OF_PERICENTER = 89.6826
MEAN_ANOMALY   = 214.7604

EPHEMERIS_TYPE = 0
CLASSIFICATION_TYPE = U
NORAD_CAT_ID   = 68029
ELEMENT_SET_NO = 999
REV_AT_EPOCH   = 201
BSTAR          = -.87122E-3
MEAN_MOTION_DOT = -.862205E-2
MEAN_MOTION_DDOT = .28507E-3

